{
  "type": "FeatureCollection",
  "features": [
    {
      "type": "Feature",
      "properties": {
        "norad_id": 66510,
        "name": "STARLINK-35600",
        "group": "last-30-days",
        "lat": -39.54997780605628,
        "lon": -4.525113703922115,
        "alt_km": 415.6141083364264,
        "timestamp": "2025-12-14T18:52:54.241368+00:00",
        "meta_object_name": "STARLINK-35600",
        "meta_object_id": "2025-263AB",
        "meta_epoch": "2025-12-13T17:04:51.354336",
        "meta_mean_motion": 15.50691917,
        "meta_eccentricity": 0.00026786,
        "meta_inclination": 43.0009,
        "meta_ra_of_asc_node": 119.3706,
        "meta_arg_of_pericenter": 264.2732,
        "meta_mean_anomaly": 95.7823,
        "meta_ephemeris_type": 0,
        "meta_classification_type": "U",
        "meta_norad_cat_id": 66510,
        "meta_element_set_no": 999,
        "meta_rev_at_epoch": 571,
        "meta_bstar": 0.0017561372,
        "meta_mean_motion_dot": 0.00104495,
        "meta_mean_motion_ddot": 0,
        "tle_line1": "1 66510U 25263AB  25347.71170549  .00104495  00000+0  17561-2 0  9995",
        "tle_line2": "2 66510  43.0009 119.3706 0002678 264.2732  95.7823 15.50691917  5713"
      },
      "geometry": {
        "type": "Point",
        "coordinates": [
          -4.525113703922115,
          -39.54997780605628
        ]
      }
    },
    {
      "type": "Feature",
      "properties": {
        "norad_id": 66511,
        "name": "STARLINK-35444",
        "group": "last-30-days",
        "lat": -40.47922465595135,
        "lon": -0.595638960021586,
        "alt_km": 417.4427928540672,
        "timestamp": "2025-12-14T18:52:54.241378+00:00",
        "meta_object_name": "STARLINK-35444",
        "meta_object_id": "2025-263AC",
        "meta_epoch": "2025-12-13T18:36:38.488608",
        "meta_mean_motion": 15.50553327,
        "meta_eccentricity": 9.555e-05,
        "meta_inclination": 42.9995,
        "meta_ra_of_asc_node": 118.9895,
        "meta_arg_of_pericenter": 296.0653,
        "meta_mean_anomaly": 64.0108,
        "meta_ephemeris_type": 0,
        "meta_classification_type": "U",
        "meta_norad_cat_id": 66511,
        "meta_element_set_no": 999,
        "meta_rev_at_epoch": 572,
        "meta_bstar": 0.0015108389,
        "meta_mean_motion_dot": 0.00089226,
        "meta_mean_motion_ddot": 0,
        "tle_line1": "1 66511U 25263AC  25347.77544547  .00089226  00000+0  15108-2 0  9994",
        "tle_line2": "2 66511  42.9995 118.9895 0000955 296.0653  64.0108 15.50553327  5729"
      },
      "geometry": {
        "type": "Point",
        "coordinates": [
          -0.595638960021586,
          -40.47922465595135
        ]
      }
    },
    {
      "type": "Feature",
      "properties": {
        "norad_id": 66512,
        "name": "STARLINK-35366",
        "group": "last-30-days",
        "lat": -41.507029178639485,
        "lon": 4.796222770918773,
        "alt_km": 415.8702872681115,
        "timestamp": "2025-12-14T18:52:54.241388+00:00",
        "meta_object_name": "STARLINK-35366",
        "meta_object_id": "2025-263AD",
        "meta_epoch": "2025-12-13T17:02:53.035584",
        "meta_mean_motion": 15.50610733,
        "meta_eccentricity": 0.00025895,
        "meta_inclination": 43.0009,
        "meta_ra_of_asc_node": 119.3568,
        "meta_arg_of_pericenter": 263.1209,
        "meta_mean_anomaly": 96.9357,
        "meta_ephemeris_type": 0,
        "meta_classification_type": "U",
        "meta_norad_cat_id": 66512,
        "meta_element_set_no": 999,
        "meta_rev_at_epoch": 571,
        "meta_bstar": 0.0018726046,
        "meta_mean_motion_dot": 0.0011122,
        "meta_mean_motion_ddot": 0,
        "tle_line1": "1 66512U 25263AD  25347.71033606  .00111220  00000+0  18726-2 0  9997",
        "tle_line2": "2 66512  43.0009 119.3568 0002589 263.1209  96.9357 15.50610733  5711"
      },
      "geometry": {
        "type": "Point",
        "coordinates": [
          4.796222770918773,
          -41.507029178639485
        ]
      }
    },
    {
      "type": "Feature",
      "properties": {
        "norad_id": 66513,
        "name": "STARLINK-35692",
        "group": "last-30-days",
        "lat": -40.0107036395413,
        "lon": -2.6782866552734603,
        "alt_km": 415.7216660501772,
        "timestamp": "2025-12-14T18:52:54.241400+00:00",
        "meta_object_name": "STARLINK-35692",
        "meta_object_id": "2025-263AE",
        "meta_epoch": "2025-12-13T18:37:07.420512",
        "meta_mean_motion": 15.50613635,
        "meta_eccentricity": 0.00033711,
        "meta_inclination": 43.0049,
        "meta_ra_of_asc_node": 118.9928,
        "meta_arg_of_pericenter": 277.9214,
        "meta_mean_anomaly": 82.1264,
        "meta_ephemeris_type": 0,
        "meta_classification_type": "U",
        "meta_norad_cat_id": 66513,
        "meta_element_set_no": 999,
        "meta_rev_at_epoch": 572,
        "meta_bstar": 0.0016517493,
        "meta_mean_motion_dot": 0.00097912,
        "meta_mean_motion_ddot": 0,
        "tle_line1": "1 66513U 25263AE  25347.77578033  .00097912  00000+0  16517-2 0  9999",
        "tle_line2": "2 66513  43.0049 118.9928 0003371 277.9214  82.1264 15.50613635  5729"
      },
      "geometry": {
        "type": "Point",
        "coordinates": [
          -2.6782866552734603,
          -40.0107036395413
        ]
      }
    },
    {
      "type": "Feature",
      "properties": {
        "norad_id": 66514,
        "name": "SENTINEL-6B",
        "group": "last-30-days",
        "lat": 2.436340584625233,
        "lon": -22.90216865360791,
        "alt_km": 1337.298217011663,
        "timestamp": "2025-12-14T18:52:54.241412+00:00",
        "meta_object_name": "SENTINEL-6B",
        "meta_object_id": "2025-264A",
        "meta_epoch": "2025-12-12T06:01:21.430272",
        "meta_mean_motion": 12.81479583,
        "meta_eccentricity": 0.00078489,
        "meta_inclination": 66.0385,
        "meta_ra_of_asc_node": 163.4531,
        "meta_arg_of_pericenter": 270.1768,
        "meta_mean_anomaly": 89.8348,
        "meta_ephemeris_type": 0,
        "meta_classification_type": "U",
        "meta_norad_cat_id": 66514,
        "meta_element_set_no": 999,
        "meta_rev_at_epoch": 322,
        "meta_bstar": 0.00019742237,
        "meta_mean_motion_dot": -1.5e-07,
        "meta_mean_motion_ddot": 0,
        "tle_line1": "1 66514U 25264A   25346.25094248 -.00000015  00000+0  19742-3 0  9997",
        "tle_line2": "2 66514  66.0385 163.4531 0007848 270.1768  89.8348 12.81479583  3228"
      },
      "geometry": {
        "type": "Point",
        "coordinates": [
          -22.90216865360791,
          2.436340584625233
        ]
      }
    },
    {
      "type": "Feature",
      "properties": {
        "norad_id": 66516,
        "name": "STARLINK-35924",
        "group": "last-30-days",
        "lat": -33.97195327878563,
        "lon": -3.9870408974024443,
        "alt_km": 446.1244817535862,
        "timestamp": "2025-12-14T18:52:54.241425+00:00",
        "meta_object_name": "STARLINK-35924",
        "meta_object_id": "2025-265A",
        "meta_epoch": "2025-12-13T22:00:00.999936",
        "meta_mean_motion": 15.40691508,
        "meta_eccentricity": 0.00015814,
        "meta_inclination": 43.001,
        "meta_ra_of_asc_node": 47.3344,
        "meta_arg_of_pericenter": 260.3125,
        "meta_mean_anomaly": 253.1354,
        "meta_ephemeris_type": 0,
        "meta_classification_type": "U",
        "meta_norad_cat_id": 66516,
        "meta_element_set_no": 999,
        "meta_rev_at_epoch": 516,
        "meta_bstar": 0.00024564795,
        "meta_mean_motion_dot": 9.968e-05,
        "meta_mean_motion_ddot": 0,
        "tle_line1": "1 66516U 25265A   25347.91667824  .00009968  00000+0  24565-3 0  9994",
        "tle_line2": "2 66516  43.0010  47.3344 0001581 260.3125 253.1354 15.40691508  5167"
      },
      "geometry": {
        "type": "Point",
        "coordinates": [
          -3.9870408974024443,
          -33.97195327878563
        ]
      }
    },
    {
      "type": "Feature",
      "properties": {
        "norad_id": 66517,
        "name": "STARLINK-35937",
        "group": "last-30-days",
        "lat": 35.789689813772426,
        "lon": 92.73092214437129,
        "alt_km": 409.5792426854805,
        "timestamp": "2025-12-14T18:52:54.241435+00:00",
        "meta_object_name": "STARLINK-35937",
        "meta_object_id": "2025-265B",
        "meta_epoch": "2025-12-13T20:59:08.712960",
        "meta_mean_motion": 15.50577777,
        "meta_eccentricity": 0.00013441,
        "meta_inclination": 42.9996,
        "meta_ra_of_asc_node": 47.383,
        "meta_arg_of_pericenter": 278.4423,
        "meta_mean_anomaly": 81.6285,
        "meta_ephemeris_type": 0,
        "meta_classification_type": "U",
        "meta_norad_cat_id": 66517,
        "meta_element_set_no": 999,
        "meta_rev_at_epoch": 393,
        "meta_bstar": 0.0012295407,
        "meta_mean_motion_dot": 0.00072457,
        "meta_mean_motion_ddot": 0,
        "tle_line1": "1 66517U 25265B   25347.87440640  .00072457  00000+0  12295-2 0  9994",
        "tle_line2": "2 66517  42.9996  47.3830 0001344 278.4423  81.6285 15.50577777  3939"
      },
      "geometry": {
        "type": "Point",
        "coordinates": [
          92.73092214437129,
          35.789689813772426
        ]
      }
    }
  ]
}